CCSDS_OMM_VERS = 2.0
CREATION_DATE  = 
ORIGINATOR     = 

OBJECT_NAME    = SL-14 R/B
OBJECT_ID      = 1991-042B
CENTER_NAME    = EARTH
REF_FRAME      = TEME
TIME_SYSTEM    = UTC
MEAN_ELEMENT_THEORY = SGP/SGP4

EPOCH          = 2026-01-12T23:31:53.597280
MEAN_MOTION    = 14.81772796
ECCENTRICITY   = .00184954
INCLINATION    = 82.4930
RA_OF_ASC_NODE = 272.4315
ARG_OF_PERICENTER = 66.1749
MEAN_ANOMALY   = 294.1401

EPHEMERIS_TYPE = 0
CLASSIFICATION_TYPE = U
NORAD_CAT_ID   = 21423
ELEMENT_SET_NO = 999
REV_AT_EPOCH   = 84482
BSTAR          = .40138967E-4
MEAN_MOTION_DOT = .341E-5
MEAN_MOTION_DDOT = 0

CCSDS_OMM_VERS = 2.0
CREATION_DATE  = 
ORIGINATOR     = 

OBJECT_NAME    = ERS-1
OBJECT_ID      = 1991-050A
CENTER_NAME    = EARTH
REF_FRAME      = TEME
TIME_SYSTEM    = UTC
MEAN_ELEMENT_THEORY = SGP/SGP4

EPOCH          = 2026-01-12T22:46:10.258176
MEAN_MOTION    = 14.39394553
ECCENTRICITY   = .00321194
INCLINATION    = 98.7899
RA_OF_ASC_NODE = 29.7835
ARG_OF_PERICENTER = 9.6034
MEAN_ANOMALY   = 350.5760

EPHEMERIS_TYPE = 0
CLASSIFICATION_TYPE = U
NORAD_CAT_ID   = 21574
ELEMENT_SET_NO = 999
REV_AT_EPOCH   = 80771
BSTAR          = .10079335E-3
MEAN_MOTION_DOT = .269E-5
MEAN_MOTION_DDOT = 0

CCSDS_OMM_VERS = 2.0
CREATION_DATE  = 
ORIGINATOR     = 

OBJECT_NAME    = ARIANE 40 R/B
OBJECT_ID      = 1991-050F
CENTER_NAME    = EARTH
REF_FRAME      = TEME
TIME_SYSTEM    = UTC
MEAN_ELEMENT_THEORY = SGP/SGP4

EPOCH          = 2026-01-12T20:30:50.565024
MEAN_MOTION    = 14.42842956
ECCENTRICITY   = .00022118
INCLINATION    = 98.2121
RA_OF_ASC_NODE = 67.1559
ARG_OF_PERICENTER = 226.9319
MEAN_ANOMALY   = 133.1686

EPHEMERIS_TYPE = 0
CLASSIFICATION_TYPE = U
NORAD_CAT_ID   = 21610
ELEMENT_SET_NO = 999
REV_AT_EPOCH   = 81094
BSTAR          = .86447835E-4
MEAN_MOTION_DOT = .247E-5
MEAN_MOTION_DDOT = 0

CCSDS_OMM_VERS = 2.0
CREATION_DATE  = 
ORIGINATOR     = 

OBJECT_NAME    = INTERCOSMOS 25
OBJECT_ID      = 1991-086A
CENTER_NAME    = EARTH
REF_FRAME      = TEME
TIME_SYSTEM    = UTC
MEAN_ELEMENT_THEORY = SGP/SGP4

EPOCH          = 2026-01-12T22:14:01.283136
MEAN_MOTION    = 12.11850527
ECCENTRICITY   = .14859705
INCLINATION    = 82.6085
RA_OF_ASC_NODE = 343.7108
ARG_OF_PERICENTER = 237.1275
MEAN_ANOMALY   = 107.8185

EPHEMERIS_TYPE = 0
CLASSIFICATION_TYPE = U
NORAD_CAT_ID   = 21819
ELEMENT_SET_NO = 999
REV_AT_EPOCH   = 48993
BSTAR          = .25941329E-3
MEAN_MOTION_DOT = .1307E-4
MEAN_MOTION_DDOT = 0

CCSDS_OMM_VERS = 2.0
CREATION_DATE  = 
ORIGINATOR     = 

OBJECT_NAME    = SL-8 R/B
OBJECT_ID      = 1992-008B
CENTER_NAME    = EARTH
REF_FRAME      = TEME
TIME_SYSTEM    = UTC
MEAN_ELEMENT_THEORY = SGP/SGP4

EPOCH          = 2026-01-12T22:47:53.436192
MEAN_MOTION    = 13.75965979
ECCENTRICITY   = .00334656
INCLINATION    = 82.9288
RA_OF_ASC_NODE = 309.2348
ARG_OF_PERICENTER = 291.5305
MEAN_ANOMALY   = 140.0132

EPHEMERIS_TYPE = 0
CLASSIFICATION_TYPE = U
NORAD_CAT_ID   = 21876
ELEMENT_SET_NO = 999
REV_AT_EPOCH   = 70175
BSTAR          = .56397103E-4
MEAN_MOTION_DOT = .7E-6
MEAN_MOTION_DDOT = 0

CCSDS_OMM_VERS = 2.0
CREATION_DATE  = 
ORIGINATOR     = 

OBJECT_NAME    = SL-8 R/B
OBJECT_ID      = 1992-020B
CENTER_NAME    = EARTH
REF_FRAME      = TEME
TIME_SYSTEM    = UTC
MEAN_ELEMENT_THEORY = SGP/SGP4

EPOCH          = 2026-01-12T23:52:46.683264
MEAN_MOTION    = 13.75537168
ECCENTRICITY   = .00302501
INCLINATION    = 82.9293
RA_OF_ASC_NODE = 195.1068
ARG_OF_PERICENTER = 93.2767
MEAN_ANOMALY   = 72.8079

EPHEMERIS_TYPE = 0
CLASSIFICATION_TYPE = U
NORAD_CAT_ID   = 21938
ELEMENT_SET_NO = 999
REV_AT_EPOCH   = 69347
BSTAR          = .15471379E-3
MEAN_MOTION_DOT = .165E-5
MEAN_MOTION_DDOT = 0

CCSDS_OMM_VERS = 2.0
CREATION_DATE  = 
ORIGINATOR     = 

OBJECT_NAME    = USA 81
OBJECT_ID      = 1992-023A
CENTER_NAME    = EARTH
REF_FRAME      = TEME
TIME_SYSTEM    = UTC
MEAN_ELEMENT_THEORY = SGP/SGP4

EPOCH          = 2026-01-12T21:53:06.559872
MEAN_MOTION    = 14.32341597
ECCENTRICITY   = .00015971
INCLINATION    = 85.0099
RA_OF_ASC_NODE = 163.5993
ARG_OF_PERICENTER = 117.3650
MEAN_ANOMALY   = 242.7705

EPHEMERIS_TYPE = 0
CLASSIFICATION_TYPE = U
NORAD_CAT_ID   = 21949
ELEMENT_SET_NO = 999
REV_AT_EPOCH   = 8680
BSTAR          = .6313612E-4
MEAN_MOTION_DOT = .19E-5
MEAN_MOTION_DDOT = 0

CCSDS_OMM_VERS = 2.0
CREATION_DATE  = 
ORIGINATOR     = 

OBJECT_NAME    = COSMOS 2219
OBJECT_ID      = 1992-076A
CENTER_NAME    = EARTH
REF_FRAME      = TEME
TIME_SYSTEM    = UTC
MEAN_ELEMENT_THEORY = SGP/SGP4

EPOCH          = 2026-01-12T16:59:56.336352
MEAN_MOTION    = 14.14081287
ECCENTRICITY   = .00205763
INCLINATION    = 71.0617
RA_OF_ASC_NODE = 135.0971
ARG_OF_PERICENTER = 284.3390
MEAN_ANOMALY   = 75.5448

EPHEMERIS_TYPE = 0
CLASSIFICATION_TYPE = U
NORAD_CAT_ID   = 22219
ELEMENT_SET_NO = 999
REV_AT_EPOCH   = 71046
BSTAR          = .46303997E-4
MEAN_MOTION_DOT = .41E-6
MEAN_MOTION_DDOT = 0

CCSDS_OMM_VERS = 2.0
CREATION_DATE  = 
ORIGINATOR     = 

OBJECT_NAME    = SL-16 R/B
OBJECT_ID      = 1992-076B
CENTER_NAME    = EARTH
REF_FRAME      = TEME
TIME_SYSTEM    = UTC
MEAN_ELEMENT_THEORY = SGP/SGP4

EPOCH          = 2026-01-12T22:09:06.108768
MEAN_MOTION    = 14.16848637
ECCENTRICITY   = .00130802
INCLINATION    = 71.0015
RA_OF_ASC_NODE = 305.8452
ARG_OF_PERICENTER = 190.4896
MEAN_ANOMALY   = 232.6736

EPHEMERIS_TYPE = 0
CLASSIFICATION_TYPE = U
NORAD_CAT_ID   = 22220
ELEMENT_SET_NO = 999
REV_AT_EPOCH   = 71393
BSTAR          = .14266831E-3
MEAN_MOTION_DOT = .238E-5
MEAN_MOTION_DDOT = 0

CCSDS_OMM_VERS = 2.0
CREATION_DATE  = 
ORIGINATOR     = 

OBJECT_NAME    = COSMOS 2221
OBJECT_ID      = 1992-080A
CENTER_NAME    = EARTH
REF_FRAME      = TEME
TIME_SYSTEM    = UTC
MEAN_ELEMENT_THEORY = SGP/SGP4

EPOCH          = 2026-01-12T22:09:55.908000
MEAN_MOTION    = 14.95920795
ECCENTRICITY   = .00153725
INCLINATION    = 82.5056
RA_OF_ASC_NODE = 332.4746
ARG_OF_PERICENTER = 26.6197
MEAN_ANOMALY   = 333.5811

EPHEMERIS_TYPE = 0
CLASSIFICATION_TYPE = U
NORAD_CAT_ID   = 22236
ELEMENT_SET_NO = 999
REV_AT_EPOCH   = 77245
BSTAR          = .13660967E-3
MEAN_MOTION_DOT = .1558E-4
MEAN_MOTION_DDOT = 0

CCSDS_OMM_VERS = 2.0
CREATION_DATE  = 
ORIGINATOR     = 

OBJECT_NAME    = SL-16 R/B
OBJECT_ID      = 1992-093B
CENTER_NAME    = EARTH
REF_FRAME      = TEME
TIME_SYSTEM    = UTC
MEAN_ELEMENT_THEORY = SGP/SGP4

EPOCH          = 2026-01-12T16:45:00.385632
MEAN_MOTION    = 14.15435600
ECCENTRICITY   = .00035451
INCLINATION    = 71.0219
RA_OF_ASC_NODE = 121.8100
ARG_OF_PERICENTER = 1.5608
MEAN_ANOMALY   = 358.5525

EPHEMERIS_TYPE = 0
CLASSIFICATION_TYPE = U
NORAD_CAT_ID   = 22285
ELEMENT_SET_NO = 999
REV_AT_EPOCH   = 70523
BSTAR          = .146803E-3
MEAN_MOTION_DOT = .239E-5
MEAN_MOTION_DDOT = 0

CCSDS_OMM_VERS = 2.0
CREATION_DATE  = 
ORIGINATOR     = 

OBJECT_NAME    = COSMOS 2228
OBJECT_ID      = 1992-094A
CENTER_NAME    = EARTH
REF_FRAME      = TEME
TIME_SYSTEM    = UTC
MEAN_ELEMENT_THEORY = SGP/SGP4

EPOCH          = 2026-01-12T21:49:39.667296
MEAN_MOTION    = 14.96904012
ECCENTRICITY   = .00192397
INCLINATION    = 82.5191
RA_OF_ASC_NODE = 290.7110
ARG_OF_PERICENTER = 125.9513
MEAN_ANOMALY   = 234.3498

EPHEMERIS_TYPE = 0
CLASSIFICATION_TYPE = U
NORAD_CAT_ID   = 22286
ELEMENT_SET_NO = 999
REV_AT_EPOCH   = 76771
BSTAR          = .18208508E-3
MEAN_MOTION_DOT = .2123E-4
MEAN_MOTION_DDOT = 0

