SL-14 R/B               
1 21423U 91042B   26012.98048145  .00000341  00000+0  40139-4 0  9996
2 21423  82.4930 272.4315 0018495  66.1749 294.1401 14.81772796844823
ERS-1                   
1 21574U 91050A   26012.94872984  .00000269  00000+0  10079-3 0  9992
2 21574  98.7899  29.7835 0032119   9.6034 350.5760 14.39394553807718
ARIANE 40 R/B           
1 21610U 91050F   26012.85475191  .00000247  00000+0  86448-4 0  9992
2 21610  98.2121  67.1559 0002211 226.9319 133.1686 14.42842956810941
INTERCOSMOS 25          
1 21819U 91086A   26012.92640374  .00001307  00000+0  25941-3 0  9995
2 21819  82.6085 343.7108 1485970 237.1275 107.8185 12.11850527489934
SL-8 R/B                
1 21876U 92008B   26012.94992403  .00000070  00000+0  56397-4 0  9994
2 21876  82.9288 309.2348 0033465 291.5305 140.0132 13.75965979701750
SL-8 R/B                
1 21938U 92020B   26012.99498476  .00000165  00000+0  15471-3 0  9995
2 21938  82.9293 195.1068 0030250  93.2767  72.8079 13.75537168693470
USA 81                  
1 21949U 92023A   26012.91188148  .00000190  00000+0  63136-4 0  9994
2 21949  85.0099 163.5993 0001597 117.3650 242.7705 14.32341597 86807
COSMOS 2219             
1 22219U 92076A   26012.70829093  .00000041  00000+0  46304-4 0  9994
2 22219  71.0617 135.0971 0020576 284.3390  75.5448 14.14081287710462
SL-16 R/B               
1 22220U 92076B   26012.92298737  .00000238  00000+0  14267-3 0  9995
2 22220  71.0015 305.8452 0013080 190.4896 232.6736 14.16848637713930
COSMOS 2221             
1 22236U 92080A   26012.92356375  .00001558  00000+0  13661-3 0  9993
2 22236  82.5056 332.4746 0015372  26.6197 333.5811 14.95920795772451
SL-16 R/B               
1 22285U 92093B   26012.69792113  .00000239  00000+0  14680-3 0  9996
2 22285  71.0219 121.8100 0003545   1.5608 358.5525 14.15435600705230
COSMOS 2228             
1 22286U 92094A   26012.90948689  .00002123  00000+0  18209-3 0  9998
2 22286  82.5191 290.7110 0019239 125.9513 234.3498 14.96904012767715
